[{"OBJECT_NAME":"STARLINK-5908","OBJECT_ID":"2023-037AP","EPOCH":"2026-03-09T22:47:23.418240","MEAN_MOTION":14.98333189,"ECCENTRICITY":0.00028195,"INCLINATION":69.9985,"RA_OF_ASC_NODE":283.6163,"ARG_OF_PERICENTER":270.8279,"MEAN_ANOMALY":89.2557,"EPHEMERIS_TYPE":0,"CLASSIFICATION_TYPE":"U","NORAD_CAT_ID":55951,"ELEMENT_SET_NO":999,"REV_AT_EPOCH":16402,"BSTAR":-4.797258e-6,"MEAN_MOTION_DOT":-1.5e-6,"MEAN_MOTION_DDOT":0},{"OBJECT_NAME":"COSMOS 2251 DEB","OBJECT_ID":"1993-036BRU","EPOCH":"2026-02-21T14:09:45.153216","MEAN_MOTION":14.99001579,"ECCENTRICITY":0.0017259,"INCLINATION":74.0061,"RA_OF_ASC_NODE":146.9269,"ARG_OF_PERICENTER":277.3195,"MEAN_ANOMALY":147.2685,"EPHEMERIS_TYPE":0,"CLASSIFICATION_TYPE":"U","NORAD_CAT_ID":38062,"ELEMENT_SET_NO":999,"REV_AT_EPOCH":64090,"BSTAR":0.0019091,"MEAN_MOTION_DOT":0.00023247,"MEAN_MOTION_DDOT":0}]
